      2.10          N: GNSS NAV DATA                        RINEX VERSION / TYPE
fic2rin                                 08/17/2018 00:17:18 PGM / RUN BY / DATE
                                                            END OF HEADER
 2 18  8 16  1 59 44.0 2.683745697141e-05-1.114131009672e-11 0.000000000000e+00
    1.000000000000e+00 2.081250000000e+01 5.017351849987e-09 7.405363044124e-01
    1.002103090286e-06 1.799232256599e-02 5.593523383141e-06 5.153792425156e+03
    3.527840000000e+05-2.756714820862e-07 2.093288084000e+00 7.450580596924e-09
    9.511329030746e-01 2.672812500000e+02-1.838406531023e+00-8.773936898261e-09
    2.089372745047e-10 1.000000000000e+00 2.014000000000e+03 0.000000000000e+00
    2.400000000000e+00 0.000000000000e+00-2.048909664154e-08 1.000000000000e+00
    3.456060000000e+05 4.000000000000e+00
15 18  8 16  1 59 44.0-3.484026528895e-04 9.094947017729e-13 0.000000000000e+00
    3.000000000000e+01 1.790625000000e+01 5.330936340611e-09 1.715745843015e+00
    1.028180122375e-06 1.049863453954e-02 1.140311360359e-05 5.153801500320e+03
    3.527840000000e+05-2.756714820862e-07-2.124017468230e+00 9.126961231232e-08
    9.281346634599e-01 1.460625000000e+02 6.951412249537e-01-8.405350116571e-09
    5.000208278745e-11 1.000000000000e+00 2.014000000000e+03 0.000000000000e+00
    2.400000000000e+00 0.000000000000e+00-1.071020960808e-08 3.000000000000e+01
    3.456060000000e+05 4.000000000000e+00
28 18  8 16  1 59 44.0 7.384722121060e-04 2.387423592154e-12 0.000000000000e+00
    4.200000000000e+01-4.584375000000e+01 3.840159958076e-09-2.754957882277e+00
   -2.300366759300e-06 1.947428670246e-02 7.130205631256e-06 5.153684413910e+03
    3.527840000000e+05 2.104789018631e-07 1.436254290670e-01 1.862645149231e-08
    9.854345342981e-01 2.535312500000e+02-1.516658249098e+00-7.494955052105e-09
   -3.718012012981e-10 1.000000000000e+00 2.014000000000e+03 0.000000000000e+00
    2.400000000000e+00 0.000000000000e+00-1.117587089539e-08 4.200000000000e+01
    3.456060000000e+05 4.000000000000e+00
 1 18  8 16  2  0  0.0-7.691280916333e-05-4.206412995700e-12 0.000000000000e+00
    3.500000000000e+01 1.668750000000e+01 4.529474385075e-09 4.310342326145e-01
    8.549541234970e-07 8.066767943092e-03 5.664303898811e-06 5.153661924362e+03
    3.528000000000e+05-1.676380634308e-08 2.156105961873e+00 1.061707735062e-07
    9.720831407647e-01 2.784062500000e+02 6.807353293474e-01-8.284630802412e-09
    3.085842823454e-10 1.000000000000e+00 2.014000000000e+03 0.000000000000e+00
    2.400000000000e+00 0.000000000000e+00 5.587935447693e-09 3.500000000000e+01
    3.456060000000e+05 4.000000000000e+00
 5 18  8 16  2  0  0.0-3.149732947350e-06 4.547473508865e-13 0.000000000000e+00
    6.300000000000e+01-6.681250000000e+01 5.000565436479e-09-2.879375899164e+00
   -3.594905138016e-06 5.573872011155e-03 7.633119821548e-06 5.153766599655e+03
    3.528000000000e+05-4.470348358154e-08-3.107295823663e+00-1.564621925354e-07
    9.486993227576e-01 2.288437500000e+02 6.555363957336e-01-8.261058391955e-09
   -1.789360248322e-10 1.000000000000e+00 2.014000000000e+03 0.000000000000e+00
    2.400000000000e+00 0.000000000000e+00-1.117587089539e-08 6.300000000000e+01
    3.456060000000e+05 4.000000000000e+00
 3 18  8 16  2  0  0.0 1.221699640155e-04 5.798028723802e-12 0.000000000000e+00
    8.500000000000e+01-6.209375000000e+01 4.805200155874e-09-5.496679357844e-01
   -3.112480044365e-06 1.649687415920e-03 7.400289177895e-06 5.153696172714e+03
    3.528000000000e+05 8.940696716309e-08-3.084375986217e+00-1.862645149231e-09
    9.618159749931e-01 2.397187500000e+02 5.584497993671e-01-8.223556829865e-09
   -1.864363372504e-10 1.000000000000e+00 2.014000000000e+03 0.000000000000e+00
    2.400000000000e+00 0.000000000000e+00 1.862645149231e-09 8.500000000000e+01
    3.456060000000e+05 4.000000000000e+00
 7 18  8 16  2  0  0.0 1.410283148289e-04-6.480149750132e-12 0.000000000000e+00
    3.700000000000e+01 4.793750000000e+01 5.038424156304e-09-2.213595517596e-01
    2.481043338776e-06 1.202057802584e-02 5.386769771576e-06 5.153642946243e+03
    3.528000000000e+05-1.676380634308e-08-9.734555232328e-01 1.192092895508e-07
    9.575824480669e-01 2.712187500000e+02-2.500969724593e+00-8.602144028113e-09
   -1.071473202588e-12 1.000000000000e+00 2.014000000000e+03 0.000000000000e+00
    2.400000000000e+00 0.000000000000e+00-1.117587089539e-08 3.700000000000e+01
    3.456060000000e+05 4.000000000000e+00
 8 18  8 16  2  0  0.0-1.117861829698e-04-1.250555214938e-12 0.000000000000e+00
    1.180000000000e+02 1.250000000000e-01 4.007309777680e-09 2.968753028434e+00
    3.539025783539e-08 3.469087299891e-03 1.088716089725e-05 5.153617166519e+03
    3.528000000000e+05 2.421438694000e-08 1.090456141692e+00 2.793967723846e-08
    9.694991256558e-01 1.735312500000e+02-4.011679027563e-01-7.843183842946e-09
    1.017899542459e-10 1.000000000000e+00 2.014000000000e+03 0.000000000000e+00
    2.400000000000e+00 0.000000000000e+00 5.122274160385e-09 1.180000000000e+02
    3.456060000000e+05 4.000000000000e+00
 6 18  8 16  2  0  0.0 3.757500089705e-04-4.433786671143e-12 0.000000000000e+00
    7.600000000000e+01 1.553125000000e+01 4.419112645208e-09 6.469563899762e-01
    9.257346391678e-07 9.921664604917e-04 5.129724740982e-06 5.153680423737e+03
    3.528000000000e+05-7.264316082001e-08 2.147780720374e+00-3.725290298462e-08
    9.717799743994e-01 2.816562500000e+02-1.073992973650e+00-8.215342201978e-09
    3.596578383355e-10 1.000000000000e+00 2.014000000000e+03 0.000000000000e+00
    2.400000000000e+00 0.000000000000e+00 4.656612873077e-09 7.600000000000e+01
    3.456060000000e+05 4.000000000000e+00
24 18  8 16  2  0  0.0-5.401670932770e-05-5.684341886081e-13 0.000000000000e+00
    5.000000000000e+00 5.603125000000e+01 5.405582307058e-09 7.786806044984e-01
    3.080815076828e-06 7.114501786418e-03 4.883855581284e-06 5.153632577896e+03
    3.528000000000e+05 1.676380634308e-08-1.034583281609e+00 1.154839992523e-07
    9.406403016271e-01 2.717187500000e+02 5.331285994490e-01-8.714648714384e-09
   -2.785830326729e-11 1.000000000000e+00 2.014000000000e+03 0.000000000000e+00
    2.400000000000e+00 0.000000000000e+00 2.793967723846e-09 5.000000000000e+00
    3.456060000000e+05 4.000000000000e+00
22 18  8 16  2  0  0.0-4.904237575829e-04-1.148237060988e-11 0.000000000000e+00
    3.800000000000e+01-6.728125000000e+01 5.635591887880e-09 1.884799680489e+00
   -3.537163138390e-06 7.177238701843e-03 6.636604666710e-06 5.153737623215e+03
    3.528000000000e+05 1.620501279831e-07 3.136282651561e+00-1.117587089539e-07
    9.259696251631e-01 2.353750000000e+02-1.494355439777e+00-8.577142986719e-09
   -1.789360248322e-10 1.000000000000e+00 2.014000000000e+03 0.000000000000e+00
    2.400000000000e+00 0.000000000000e+00-1.816079020500e-08 3.800000000000e+01
    3.456060000000e+05 4.000000000000e+00
23 18  8 16  2  0  0.0-2.127336338162e-04 6.821210263297e-13 0.000000000000e+00
    3.700000000000e+01 1.015625000000e+01 4.967706924933e-09 1.256060454908e+00
    7.562339305878e-07 1.264948514290e-02 1.209788024426e-05 5.153757457733e+03
    3.528000000000e+05-1.713633537292e-07-2.053629325767e+00 1.303851604462e-07
    9.433682356908e-01 1.413125000000e+02-2.333320464026e+00-8.364991292606e-09
   -2.500104139373e-11 1.000000000000e+00 2.014000000000e+03 0.000000000000e+00
    2.400000000000e+00 0.000000000000e+00-2.002343535423e-08 3.700000000000e+01
    3.456060000000e+05 4.000000000000e+00
17 18  8 16  2  0  0.0-6.683729588985e-05 4.206412995700e-12 0.000000000000e+00
    3.200000000000e+01 5.781250000000e+00 3.630151210369e-09 2.595296111997e+00
    3.520399332047e-07 1.246191153768e-02 1.029111444950e-05 5.153601755142e+03
    3.528000000000e+05 1.396983861923e-07 1.154075129599e+00-5.774199962616e-08
    9.830053354208e-01 1.893750000000e+02-1.776754554970e+00-7.447453073457e-09
    1.896507568581e-10 1.000000000000e+00 2.014000000000e+03 0.000000000000e+00
    2.400000000000e+00 0.000000000000e+00-1.117587089539e-08 3.200000000000e+01
    3.456060000000e+05 4.000000000000e+00
27 18  8 16  2  0  0.0 3.536003641784e-04-3.069544618484e-12 0.000000000000e+00
    3.500000000000e+01 6.281250000000e+00 3.825159333240e-09 2.618791780332e+00
    3.259629011154e-07 6.009491742589e-03 1.139193773270e-05 5.153695732117e+03
    3.528000000000e+05-4.470348358154e-08 1.099554665597e+00-5.215406417847e-08
    9.777063433136e-01 1.672812500000e+02 4.569959009936e-01-7.741036730966e-09
    1.500062483624e-10 1.000000000000e+00 2.014000000000e+03 0.000000000000e+00
    2.400000000000e+00 0.000000000000e+00 1.862645149231e-09 3.500000000000e+01
    3.456060000000e+05 4.000000000000e+00
25 18  8 16  2  0  0.0-6.322534754872e-04-5.798028723802e-12 0.000000000000e+00
    8.000000000000e+01-4.015625000000e+01 4.291607334100e-09-1.249978427122e+00
   -2.140179276466e-06 7.446278119460e-03 7.381662726402e-06 5.153605962753e+03
    3.528000000000e+05 1.601874828339e-07 5.982692430582e-02 5.960464477539e-08
    9.737057670736e-01 2.447500000000e+02 8.695702301419e-01-8.033906073007e-09
   -4.785913638228e-10 1.000000000000e+00 2.014000000000e+03 0.000000000000e+00
    2.400000000000e+00 0.000000000000e+00 5.587935447693e-09 8.000000000000e+01
    3.456060000000e+05 4.000000000000e+00
14 18  8 16  2  0  0.0-9.761098772287e-05 1.136868377216e-13 0.000000000000e+00
    8.400000000000e+01 3.609375000000e+01 4.423041380284e-09 2.325634112499e+00
    1.754611730576e-06 1.007170882076e-02 1.174397766590e-05 5.153621294022e+03
    3.528000000000e+05 6.332993507385e-08-1.960745166392e+00-1.639127731323e-07
    9.607138300672e-01 1.497812500000e+02-1.942636535889e+00-7.788538709614e-09
    9.428964182777e-11 1.000000000000e+00 2.014000000000e+03 0.000000000000e+00
    2.400000000000e+00 0.000000000000e+00-9.778887033463e-09 8.400000000000e+01
    3.456060000000e+05 4.000000000000e+00
